{
  "type": "FeatureCollection",
  "features": [
    {
      "type": "Feature",
      "properties": {
        "norad_id": 41599,
        "name": "CARTOSAT-2C",
        "group": "resource",
        "lat": -79.86538774580026,
        "lon": 96.46116032937259,
        "alt_km": 520.6854987440638,
        "timestamp": "2025-12-17T23:38:06.520438+00:00",
        "meta_object_name": "CARTOSAT-2C",
        "meta_object_id": "2016-040A",
        "meta_epoch": "2025-12-17T16:05:47.594400",
        "meta_mean_motion": 15.19158635,
        "meta_eccentricity": 0.00113114,
        "meta_inclination": 97.4763,
        "meta_ra_of_asc_node": 48.8707,
        "meta_arg_of_pericenter": 47.451,
        "meta_mean_anomaly": 312.7678,
        "meta_ephemeris_type": 0,
        "meta_classification_type": "U",
        "meta_norad_cat_id": 41599,
        "meta_element_set_no": 999,
        "meta_rev_at_epoch": 52615,
        "meta_bstar": 0.00017422247,
        "meta_mean_motion_dot": 3.599e-05,
        "meta_mean_motion_ddot": 0,
        "tle_line1": "1 41599U 16040A   25351.67068975  .00003599  00000+0  17422-3 0  9997",
        "tle_line2": "2 41599  97.4763  48.8707 0011311  47.4510 312.7678 15.19158635526155"
      },
      "geometry": {
        "type": "Point",
        "coordinates": [
          96.46116032937259,
          -79.86538774580026
        ]
      }
    },
    {
      "type": "Feature",
      "properties": {
        "norad_id": 41601,
        "name": "SKYSAT-C1",
        "group": "resource",
        "lat": -44.369502023502854,
        "lon": -158.18236867542703,
        "alt_km": 475.4416649882187,
        "timestamp": "2025-12-17T23:38:06.520448+00:00",
        "meta_object_name": "SKYSAT-C1",
        "meta_object_id": "2016-040C",
        "meta_epoch": "2025-12-17T14:49:23.156832",
        "meta_mean_motion": 15.32678311,
        "meta_eccentricity": 0.00018094,
        "meta_inclination": 96.9823,
        "meta_ra_of_asc_node": 28.3568,
        "meta_arg_of_pericenter": 359.3867,
        "meta_mean_anomaly": 0.7374,
        "meta_ephemeris_type": 0,
        "meta_classification_type": "U",
        "meta_norad_cat_id": 41601,
        "meta_element_set_no": 999,
        "meta_rev_at_epoch": 53002,
        "meta_bstar": 0.00024013946,
        "meta_mean_motion_dot": 7.507e-05,
        "meta_mean_motion_ddot": 0,
        "tle_line1": "1 41601U 16040C   25351.61762913  .00007507  00000+0  24014-3 0  9996",
        "tle_line2": "2 41601  96.9823  28.3568 0001809 359.3867   0.7374 15.32678311530020"
      },
      "geometry": {
        "type": "Point",
        "coordinates": [
          -158.18236867542703,
          -44.369502023502854
        ]
      }
    },
    {
      "type": "Feature",
      "properties": {
        "norad_id": 41603,
        "name": "LAPAN-A3",
        "group": "resource",
        "lat": -11.552528052633251,
        "lon": -9.180795659834526,
        "alt_km": 470.4179307278655,
        "timestamp": "2025-12-17T23:38:06.520459+00:00",
        "meta_object_name": "LAPAN-A3",
        "meta_object_id": "2016-040E",
        "meta_epoch": "2025-12-17T14:16:39.767808",
        "meta_mean_motion": 15.31591586,
        "meta_eccentricity": 0.00091672,
        "meta_inclination": 97.1423,
        "meta_ra_of_asc_node": 348.9747,
        "meta_arg_of_pericenter": 314.4675,
        "meta_mean_anomaly": 45.5816,
        "meta_ephemeris_type": 0,
        "meta_classification_type": "U",
        "meta_norad_cat_id": 41603,
        "meta_element_set_no": 999,
        "meta_rev_at_epoch": 52700,
        "meta_bstar": 0.00011314493,
        "meta_mean_motion_dot": 3.381e-05,
        "meta_mean_motion_ddot": 0,
        "tle_line1": "1 41603U 16040E   25351.59490472  .00003381  00000+0  11314-3 0  9998",
        "tle_line2": "2 41603  97.1423 348.9747 0009167 314.4675  45.5816 15.31591586527004"
      },
      "geometry": {
        "type": "Point",
        "coordinates": [
          -9.180795659834526,
          -11.552528052633251
        ]
      }
    },
    {
      "type": "Feature",
      "properties": {
        "norad_id": 41604,
        "name": "BIROS",
        "group": "resource",
        "lat": -27.145045896857518,
        "lon": -160.0120420113893,
        "alt_km": 302.6804689211722,
        "timestamp": "2025-12-17T23:38:06.520469+00:00",
        "meta_object_name": "BIROS",
        "meta_object_id": "2016-040F",
        "meta_epoch": "2025-12-17T15:13:21.855072",
        "meta_mean_motion": 15.91577007,
        "meta_eccentricity": 0.0003703,
        "meta_inclination": 97.0677,
        "meta_ra_of_asc_node": 23.2697,
        "meta_arg_of_pericenter": 135.7681,
        "meta_mean_anomaly": 224.389,
        "meta_ephemeris_type": 0,
        "meta_classification_type": "U",
        "meta_norad_cat_id": 41604,
        "meta_element_set_no": 999,
        "meta_rev_at_epoch": 52950,
        "meta_bstar": 0.00056136978,
        "meta_mean_motion_dot": 0.00180274,
        "meta_mean_motion_ddot": 1.3913944e-05,
        "tle_line1": "1 41604U 16040F   25351.63428073  .00180274  13914-4  56137-3 0  9994",
        "tle_line2": "2 41604  97.0677  23.2697 0003703 135.7681 224.3890 15.91577007529507"
      },
      "geometry": {
        "type": "Point",
        "coordinates": [
          -160.0120420113893,
          -27.145045896857518
        ]
      }
    },
    {
      "type": "Feature",
      "properties": {
        "norad_id": 41727,
        "name": "GAOFEN-3",
        "group": "resource",
        "lat": -60.29727250430517,
        "lon": 162.4723107190856,
        "alt_km": 759.2417084243534,
        "timestamp": "2025-12-17T23:38:06.520480+00:00",
        "meta_object_name": "GAOFEN-3",
        "meta_object_id": "2016-049A",
        "meta_epoch": "2025-12-17T14:11:38.796864",
        "meta_mean_motion": 14.42215027,
        "meta_eccentricity": 0.00012995,
        "meta_inclination": 98.4037,
        "meta_ra_of_asc_node": 357.1042,
        "meta_arg_of_pericenter": 58.3455,
        "meta_mean_anomaly": 301.7862,
        "meta_ephemeris_type": 0,
        "meta_classification_type": "U",
        "meta_norad_cat_id": 41727,
        "meta_element_set_no": 999,
        "meta_rev_at_epoch": 49247,
        "meta_bstar": 5.0177076e-05,
        "meta_mean_motion_dot": 1.22e-06,
        "meta_mean_motion_ddot": 0,
        "tle_line1": "1 41727U 16049A   25351.59142126  .00000122  00000+0  50177-4 0  9995",
        "tle_line2": "2 41727  98.4037 357.1042 0001299  58.3455 301.7862 14.42215027492478"
      },
      "geometry": {
        "type": "Point",
        "coordinates": [
          162.4723107190856,
          -60.29727250430517
        ]
      }
    },
    {
      "type": "Feature",
      "properties": {
        "norad_id": 41771,
        "name": "SKYSAT-C4",
        "group": "resource",
        "lat": -17.446982225500843,
        "lon": 19.11096904999025,
        "alt_km": 445.2443693106252,
        "timestamp": "2025-12-17T23:38:06.520490+00:00",
        "meta_object_name": "SKYSAT-C4",
        "meta_object_id": "2016-058B",
        "meta_epoch": "2025-12-17T14:22:08.091264",
        "meta_mean_motion": 15.42388294,
        "meta_eccentricity": 0.00019426,
        "meta_inclination": 96.9369,
        "meta_ra_of_asc_node": 16.5506,
        "meta_arg_of_pericenter": 131.7444,
        "meta_mean_anomaly": 228.3971,
        "meta_ephemeris_type": 0,
        "meta_classification_type": "U",
        "meta_norad_cat_id": 41771,
        "meta_element_set_no": 999,
        "meta_rev_at_epoch": 51742,
        "meta_bstar": 0.00028161381,
        "meta_mean_motion_dot": 0.00012085,
        "meta_mean_motion_ddot": 0,
        "tle_line1": "1 41771U 16058B   25351.59870476  .00012085  00000+0  28161-3 0  9998",
        "tle_line2": "2 41771  96.9369  16.5506 0001942 131.7444 228.3971 15.42388294517424"
      },
      "geometry": {
        "type": "Point",
        "coordinates": [
          19.11096904999025,
          -17.446982225500843
        ]
      }
    },
    {
      "type": "Feature",
      "properties": {
        "norad_id": 41772,
        "name": "SKYSAT-C5",
        "group": "resource",
        "lat": 75.05085700572313,
        "lon": -116.75710637237168,
        "alt_km": 459.37665715746425,
        "timestamp": "2025-12-17T23:38:06.520500+00:00",
        "meta_object_name": "SKYSAT-C5",
        "meta_object_id": "2016-058C",
        "meta_epoch": "2025-12-17T15:21:31.669632",
        "meta_mean_motion": 15.339631,
        "meta_eccentricity": 0.0003766,
        "meta_inclination": 97.0757,
        "meta_ra_of_asc_node": 35.1878,
        "meta_arg_of_pericenter": 270.2229,
        "meta_mean_anomaly": 89.8583,
        "meta_ephemeris_type": 0,
        "meta_classification_type": "U",
        "meta_norad_cat_id": 41772,
        "meta_element_set_no": 999,
        "meta_rev_at_epoch": 51591,
        "meta_bstar": 0.00022831886,
        "meta_mean_motion_dot": 7.429e-05,
        "meta_mean_motion_ddot": 0,
        "tle_line1": "1 41772U 16058C   25351.63994988  .00007429  00000+0  22832-3 0  9994",
        "tle_line2": "2 41772  97.0757  35.1878 0003766 270.2229  89.8583 15.33963100515919"
      },
      "geometry": {
        "type": "Point",
        "coordinates": [
          -116.75710637237168,
          75.05085700572313
        ]
      }
    }
  ]
}